ORBCOMM FM06            
1 25118U 97084G   26160.12865578  .00001153  00000+0  34963-3 0  9999
2 25118  45.0138  91.5055 0001849 306.1714  72.9851 14.47542159493223
ORBCOMM FM04            
1 25159U 98007C   26160.24257822  .00000812  00000+0  32350-3 0  9999
2 25159 107.9626 153.0683 0041080 338.4504  21.4907 14.35726501475453
ORBCOMM FM19            
1 25415U 98046C   26159.60637546  .00000874  00000+0  32314-3 0  9998
2 25415  44.9944 284.3488 0004317 247.3219 131.3998 14.39482707455545
ORBCOMM FM20            
1 25416U 98046D   26160.02383584  .00000569  00000+0  23281-3 0  9991
2 25416  44.9948 290.1968 0001784 222.3856 137.6855 14.38055426455615
ORBCOMM FM27            
1 25481U 98053G   26159.85726768  .00000907  00000+0  33612-3 0  9990
2 25481  45.0065  14.9171 0000244 122.8540 237.2333 14.39126061449033
ORBCOMM FM32            
1 25982U 99065C   26160.15705307  .00000482  00000+0  20815-3 0  9990
2 25982  45.0140 211.2502 0005018 353.6429   6.4355 14.37121138385933
ORBCOMM FM109           
1 40086U 14040A   26160.22221587  .00000471  00000+0  13591-3 0  9994
2 40086  47.0020 129.1440 0001699 223.5414 136.5338 14.58836482633189
ORBCOMM FM114           
1 41179U 15081A   26159.96555497  .00000471  00000+0  13581-3 0  9992
2 41179  47.0059  40.8748 0001959 173.2997 186.7915 14.58849213556550
ORBCOMM FM110           
1 41182U 15081D   26159.40617106  .00000743  00000+0  19351-3 0  9994
2 41182  47.0028  42.9609 0002852  26.3800 333.7231 14.58866539556345
ORBCOMM FM118           
1 41183U 15081E   26159.37192238  .00002733  00000+0  61393-3 0  9999
2 41183  47.0109  43.4533 0003135 338.0740  22.0011 14.58872980556441
ORBCOMM FM112           
1 41184U 15081F   26160.12999248  .00000569  00000+0  15653-3 0  9994
2 41184  47.0001 308.3470 0003239 182.2677 177.8194 14.58892085557775
ORBCOMM FM113           
1 41185U 15081G   26160.10637007  .00000392  00000+0  11906-3 0  9996
2 41185  47.0018 308.8310 0001810 192.4742 167.6099 14.58849888557753
ORBCOMM FM108           
1 41187U 15081J   26159.93185668  .00000511  00000+0  14433-3 0  9999
2 41187  47.0040 221.2288 0002531 186.7177 173.3675 14.58862719558877
ORBCOMM FM117           
1 41188U 15081K   26158.87004529  .00000590  00000+0  16110-3 0  9999
2 41188  47.0005 224.8856 0002980 184.7848 175.3010 14.58857943558766
ORBCOMM FM116           
1 41189U 15081L   26158.71361229  .00000857  00000+0  21737-3 0  9993
2 41189  47.0035 315.4145 0001121   3.5235 356.5659 14.58869594557555
